#dP2024  7  3  0  0  0.00000000      96 __u+U IGS20 EXT  IAC
## 2321 259200.00000000   900.00000000 60494 0.0000000000000
+   54   G02G03G04G05G06G07G08G09G10G11G12G13G14G15G16G17G18
+        G19G20G21G22G23G24G25G26G27G28G29G30G31G32R01R02R03
+        R04R05R07R08R09R11R12R13R14R15R16R17R18R19R20R21R22
+        R24R25R26  0  0  0  0  0  0  0  0  0  0  0  0  0  0
+          0  0  0  0  0  0  0  0  0  0  0  0  0  0  0  0  0
++         7  9  9  7  8  9  9 11  5  8  8  7  8  7  8  9  9
++         7  7  7  9  9  9  8  9  8  8  9  7  6  7 10  8  9
++         6  7 10 10  9  7  8  7  8  8  7  8  7  9 10  6  8
++         8  6  8  0  0  0  0  0  0  0  0  0  0  0  0  0  0
++         0  0  0  0  0  0  0  0  0  0  0  0  0  0  0  0  0
%c M  cc GPS ccc cccc cccc cccc cccc ccccc ccccc ccccc ccccc
%c cc cc ccc ccc cccc cccc cccc cccc ccccc ccccc ccccc ccccc
%f  0.0000000  0.000000000  0.00000000000  0.000000000000000
%f  0.0000000  0.000000000  0.00000000000  0.000000000000000
%i    0    0    0    0      0      0      0      0         0
%i    0    0    0    0      0      0      0      0         0
/* IAC                                ULTRA-RAPID PREDICTION
/* S/V CLOCKS ARE ALIGNED TO GNSS TIME                      
/* G:C1WC2W R:C1PC2P E:C1XC5X C:C2IC6I J:C1CC2S             
/* PCV:IGS20_2317 OL/AL:FES2004  NONE     YN ORB:CoN CLK:CoN
*  2024 07 03 16  0  0.00000000
PG02  17898.910321  13484.487071 -14012.812184   -406.067552
PG03  12514.819291  20613.538828  11106.169243    441.961795
PG04  10886.395688  10537.921395  21835.292037    396.214680
PG05  -4977.243966 -25754.234077   3689.464150   -178.484154
PG06  17893.851162  -7132.955656  18394.765329    183.170400
PG07  25989.129488   6063.959320  -2057.668215    -77.816130
PG08   1462.244359  18147.359990 -19299.888154    258.293747
PG09  19219.107759  -1186.464254  18231.762940    258.771679
PG10 -11982.811742  10158.498787 -21148.908231    -57.093186
PG11   3988.799990 -14600.014551  21851.632460   -697.968281
PG12 -10181.072187 -22795.510101   8852.298488   -519.265920
PG13   8538.188744 -19500.889774 -15941.930780    662.127417
PG14  14481.517833  -6022.884548 -21379.758826    440.169102
PG15  -4011.847745 -18201.277448 -19362.097952    177.006739
PG16   -541.778241  25466.429174   6316.103585   -246.958318
PG17  22285.308785 -12594.869617  -6975.750875    684.432561
PG18 -25846.949335  -5465.130000  -3657.669066   -632.452374
PG19  20299.540132 -16725.993839   1171.308752    505.222964
PG20    319.315915 -22967.082113  13526.316043    373.157202
PG21  13412.653341  14995.552071 -17409.720510    111.358978
PG22  10945.023794 -14996.581258 -18686.386734    -35.117214
PG23 -15636.208770  -3128.002983 -21253.126269    265.130170
PG24 -15682.142258 -15011.733712 -15995.195983   -481.372156
PG25 -15558.356000 -14213.768961  15985.088885    498.120365
PG26  -7548.266331  18310.050053  17370.981313    126.457547
PG27  -9323.829593  21352.359241 -12637.580561    -30.160411
PG28 -19707.055131   6798.380772  16448.407574   -315.755813
PG29 -17404.589550  -3213.142348  19791.919806   -591.345156
PG30  23466.477466  -2579.052849 -12276.663830   -364.013351
PG31  -9682.675949  12636.141097  21097.185095   -227.024541
PG32 -21009.650406  14944.732077  -5713.631411   -613.909902
PR01  13370.135064  -6050.933571  20858.795358     90.249411
PR02  13789.408271 -19806.198975   8401.939099    -23.561786
PR03   6070.014735 -23080.236447  -9040.091598    103.175279
PR04  -4351.231934 -13542.488773 -21148.608223    243.811034
PR05 -12691.505412   3080.075024 -21896.640298    134.026689
PR07  -5570.847313  22847.021482   9862.496502     85.875310
PR08   4783.603939  13291.936226  21290.282551     -5.553739
PR09  -7251.420053   9118.560522  22721.366460    195.645796
PR11  15024.985913  20625.079757   -288.637025     19.367524
PR12  16313.134101   8222.582840 -17767.962393     42.028537
PR13   9014.764919  -6415.552819 -22990.244708    -48.952716
PR14  -5759.517695 -20079.676802 -14604.202638     26.643595
PR15 -15501.205235 -20151.865610   2028.282244     78.228325
PR16 -16307.217508  -8358.241012  17741.210543     27.014844
PR17   2275.855666 -10764.850607  23011.807034    101.346498
PR18 -14964.654390  -7645.223969  19182.700978    150.103380
PR19 -24369.471201  -2255.799691   7202.904521   -282.563088
PR20 -20432.673659   6854.296073 -13614.640840   -115.555607
PR21  -2874.203160  10674.983491 -22995.313737   -114.465848
PR22  15895.852323   7946.282439 -18279.620844     94.184407
PR24  19705.963975  -8233.585201  13942.142879    -62.331763
PR25  -2409.826812  10975.173205 -22899.439565    -94.477693
PR26   3986.044022  14457.616630  20660.589037     -4.892329
*  2024 07 03 16 15  0.00000000
PG02  16110.577106  13351.770445 -16061.788842   -406.061026
PG03  12660.295129  21753.126496   8511.993066    441.977203
PG04   9075.831921  12246.643473  21759.271634    396.221795
PG05  -4572.874139 -25251.584286   6493.149752   -178.485291
PG06  19780.360085  -6515.887880  16608.181700    183.150483
PG07  26052.214279   6340.569098    748.151491    -77.808495
PG08    -85.898815  19604.569846 -17829.199942    258.309070
PG09  17824.989708    494.854098  19616.103370    258.785048
PG10 -12702.230687   7765.698484 -21757.361619    -57.101452
PG11   6365.029182 -13859.370793  21765.596603   -697.974860
PG12 -10128.451001 -23717.541947   6173.178406   -519.268716
PG13   9973.006420 -20383.492808 -13815.469514    662.129654
PG14  15108.287816  -3635.877806 -21504.142742    440.177165
PG15  -2683.833165 -19778.233327 -17939.429952    177.010578
PG16   -983.354203  24604.644471   9012.018829   -246.948706
PG17  21688.598602 -11768.724940  -9621.493856    684.426390
PG18 -26039.147154  -5725.927539   -802.245575   -632.456308
PG19  20459.337657 -16511.920313  -1722.658341    505.227818
PG20   1210.876515 -21560.411775  15623.917123    373.156816
PG21  11298.791616  14753.531663 -18917.357627    111.356665
PG22  11464.328976 -12770.867460 -19932.503216    -35.121503
PG23 -16281.824628  -5412.686461 -20306.970083    265.138288
PG24 -13826.497649 -14900.032042 -17725.876871   -481.373940
PG25 -15871.951823 -15957.683534  13968.009195    498.120736
PG26  -8467.405496  16389.116102  18826.922444    126.451549
PG27 -10381.819918  22110.072003 -10182.188984    -30.161319
PG28 -21394.742908   6238.787181  14440.232796   -315.770486
PG29 -15705.896491  -4809.388270  20847.188107   -591.343480
PG30  24645.163046  -2001.190366  -9895.395391   -364.007601
PG31 -11988.739583  11927.522942  20354.136997   -227.024326
PG32 -20612.968356  14162.650576  -8427.372609   -613.908407
PR01  12354.066286  -3606.882106  22020.147124     90.250377
PR02  13157.054397 -18763.465861  11313.735211    -23.562010
PR03   6290.959826 -24000.769052  -6000.229053    103.175783
PR04  -3416.134838 -15888.734848 -19636.757915    243.812329
PR05 -11535.817706    574.998628 -22730.501617    134.027149
PR07  -5836.133631  23851.264560   6858.955684     85.876132
PR08   3859.646125  15643.300100  19822.968661     -5.554113
PR09  -9005.364067   6930.889124  22859.087950    195.647620
PR11  15042.749870  20409.103072   2915.584354     19.366292
PR12  17633.879344   9809.469806 -15567.947298     42.028957
PR13  10756.505063  -4197.944628 -22751.867307    -48.952954
PR14  -4631.221050 -18488.855925 -16921.473788     26.643538
PR15 -15632.466615 -20114.299382  -1174.616915     78.227947
PR16 -17639.407387  -9921.098490  15517.338307     27.015100
PR17   5056.963470 -11122.253989  22386.447419    101.349398
PR18 -12496.424745  -7797.971546  20822.211693    150.105050
PR19 -23280.578934  -2129.759870  10211.232193   -282.564364
PR20 -21929.813629   7146.202624 -10853.624640   -115.556394
PR21  -5650.764249  11016.281225 -22312.001685   -114.468728
PR22  13526.747402   8049.596956 -20052.112095     94.179152
PR24  21234.719319  -8538.714001  11250.611466    -62.333186
PR25  -5189.791881  11214.860507 -22316.665926    -94.479974
PR26   3118.556521  16744.215823  19018.367543     -4.891552
EOF
